[{"OBJECT_NAME":"STARLINK-34423","OBJECT_ID":"2025-130Y","EPOCH":"2026-03-09T08:10:14.021184","MEAN_MOTION":15.30204972,"ECCENTRICITY":0.00013139,"INCLINATION":53.1589,"RA_OF_ASC_NODE":89.8674,"ARG_OF_PERICENTER":68.6661,"MEAN_ANOMALY":291.448,"EPHEMERIS_TYPE":0,"CLASSIFICATION_TYPE":"U","NORAD_CAT_ID":64460,"ELEMENT_SET_NO":999,"REV_AT_EPOCH":4065,"BSTAR":0.0010239809,"MEAN_MOTION_DOT":0.00030096,"MEAN_MOTION_DDOT":0},{"OBJECT_NAME":"OBJECT J","OBJECT_ID":"2025-155J","EPOCH":"2026-03-09T22:09:22.347648","MEAN_MOTION":15.2758258,"ECCENTRICITY":0.00088188,"INCLINATION":97.4475,"RA_OF_ASC_NODE":37.3123,"ARG_OF_PERICENTER":150.071,"MEAN_ANOMALY":210.1035,"EPHEMERIS_TYPE":0,"CLASSIFICATION_TYPE":"U","NORAD_CAT_ID":64884,"ELEMENT_SET_NO":999,"REV_AT_EPOCH":6559,"BSTAR":0.00051444498,"MEAN_MOTION_DOT":0.00013827,"MEAN_MOTION_DDOT":0}]
